{"fetched_at":"2026-07-18T17:29:31.619Z","source":"https://celestrak.org/NORAD/elements/gp.php?GROUP=oneweb&FORMAT=JSON","constellation":"oneweb","records":[{"OBJECT_NAME":"ONEWEB-0027","OBJECT_ID":"2020-020J","EPOCH":"2026-07-18T04:00:32.649120","CLASSIFICATION_TYPE":"U","MEAN_MOTION":13.17651072,"ECCENTRICITY":0.00022914,"INCLINATION":87.9149,"RA_OF_ASC_NODE":359.7024,"ARG_OF_PERICENTER":92.4712,"MEAN_ANOMALY":267.6682,"EPHEMERIS_TYPE":0,"NORAD_CAT_ID":45432,"ELEMENT_SET_NO":999,"REV_AT_EPOCH":31043,"BSTAR":-0.0004165245,"MEAN_MOTION_DOT":-0.00000149,"MEAN_MOTION_DDOT":0},{"OBJECT_NAME":"ONEWEB-0064","OBJECT_ID":"2020-020K","EPOCH":"2026-07-18T05:43:25.219776","CLASSIFICATION_TYPE":"U","MEAN_MOTION":13.11417216,"ECCENTRICITY":0.00020319,"INCLINATION":87.8889,"RA_OF_ASC_NODE":14.8836,"ARG_OF_PERICENTER":91.712,"MEAN_ANOMALY":268.424,"EPHEMERIS_TYPE":0,"NORAD_CAT_ID":45433,"ELEMENT_SET_NO":999,"REV_AT_EPOCH":30675,"BSTAR":0.0010644304,"MEAN_MOTION_DOT":0.0000039,"MEAN_MOTION_DDOT":0},{"OBJECT_NAME":"ONEWEB-0018","OBJECT_ID":"2020-020L","EPOCH":"2026-07-18T04:39:43.294176","CLASSIFICATION_TYPE":"U","MEAN_MOTION":13.11414968,"ECCENTRICITY":0.00016915,"INCLINATION":87.8888,"RA_OF_ASC_NODE":14.8919,"ARG_OF_PERICENTER":102.9396,"MEAN_ANOMALY":257.1921,"EPHEMERIS_TYPE":0,"NORAD_CAT_ID":45434,"ELEMENT_SET_NO":999,"REV_AT_EPOCH":30669,"BSTAR":-0.00049427923,"MEAN_MOTION_DOT":-0.00000162,"MEAN_MOTION_DDOT":0},{"OBJECT_NAME":"ONEWEB-0083","OBJECT_ID":"2020-020M","EPOCH":"2026-07-18T00:45:45.091296","CLASSIFICATION_TYPE":"U","MEAN_MOTION":13.11414747,"ECCENTRICITY":0.00019003,"INCLINATION":87.8892,"RA_OF_ASC_NODE":14.9196,"ARG_OF_PERICENTER":93.2269,"MEAN_ANOMALY":266.9076,"EPHEMERIS_TYPE":0,"NORAD_CAT_ID":45435,"ELEMENT_SET_NO":999,"REV_AT_EPOCH":30671,"BSTAR":0.00036698697,"MEAN_MOTION_DOT":0.00000143,"MEAN_MOTION_DDOT":0},{"OBJECT_NAME":"ONEWEB-0095","OBJECT_ID":"2020-020N","EPOCH":"2026-07-18T06:03:09.133920","CLASSIFICATION_TYPE":"U","MEAN_MOTION":13.114153,"ECCENTRICITY":0.00022479,"INCLINATION":87.8894,"RA_OF_ASC_NODE":14.8843,"ARG_OF_PERICENTER":76.2506,"MEAN_ANOMALY":283.8872,"EPHEMERIS_TYPE":0,"NORAD_CAT_ID":45436,"ELEMENT_SET_NO":999,"REV_AT_EPOCH":30674,"BSTAR":0.0013187371,"MEAN_MOTION_DOT":0.0000048,"MEAN_MOTION_DDOT":0},{"OBJECT_NAME":"ONEWEB-0092","OBJECT_ID":"2020-020P","EPOCH":"2026-07-18T01:17:29.657472","CLASSIFICATION_TYPE":"U","MEAN_MOTION":13.11414248,"ECCENTRICITY":0.00017138,"INCLINATION":87.8893,"RA_OF_ASC_NODE":14.9148,"ARG_OF_PERICENTER":97.0897,"MEAN_ANOMALY":263.0426,"EPHEMERIS_TYPE":0,"NORAD_CAT_ID":45437,"ELEMENT_SET_NO":999,"REV_AT_EPOCH":30683,"BSTAR":-0.0016370165,"MEAN_MOTION_DOT":-0.00000567,"MEAN_MOTION_DDOT":0},{"OBJECT_NAME":"ONEWEB-0085","OBJECT_ID":"2020-020Q","EPOCH":"2026-07-18T00:45:21.164544","CLASSIFICATION_TYPE":"U","MEAN_MOTION":13.11415461,"ECCENTRICITY":0.00018751,"INCLINATION":87.8888,"RA_OF_ASC_NODE":14.9245,"ARG_OF_PERICENTER":90.458,"MEAN_ANOMALY":269.6763,"EPHEMERIS_TYPE":0,"NORAD_CAT_ID":45438,"ELEMENT_SET_NO":999,"REV_AT_EPOCH":30671,"BSTAR":0.00036124324,"MEAN_MOTION_DOT":0.00000141,"MEAN_MOTION_DDOT":0},{"OBJECT_NAME":"ONEWEB-0096","OBJECT_ID":"2020-020R","EPOCH":"2026-07-18T04:27:43.498368","CLASSIFICATION_TYPE":"U","MEAN_MOTION":13.11414823,"ECCENTRICITY":0.00019196,"INCLINATION":87.8892,"RA_OF_ASC_NODE":14.8914,"ARG_OF_PERICENTER":88.2783,"MEAN_ANOMALY":271.8565,"EPHEMERIS_TYPE":0,"NORAD_CAT_ID":45439,"ELEMENT_SET_NO":999,"REV_AT_EPOCH":30672,"BSTAR":0.00057464505,"MEAN_MOTION_DOT":0.00000216,"MEAN_MOTION_DDOT":0},{"OBJECT_NAME":"ONEWEB-0037","OBJECT_ID":"2020-020S","EPOCH":"2026-07-18T05:05:32.369280","CLASSIFICATION_TYPE":"U","MEAN_MOTION":13.11416238,"ECCENTRICITY":0.00019736,"INCLINATION":87.8903,"RA_OF_ASC_NODE":14.8593,"ARG_OF_PERICENTER":86.8465,"MEAN_ANOMALY":273.2888,"EPHEMERIS_TYPE":0,"NORAD_CAT_ID":45440,"ELEMENT_SET_NO":999,"REV_AT_EPOCH":30676,"BSTAR":-0.0015408131,"MEAN_MOTION_DOT":-0.00000533,"MEAN_MOTION_DDOT":0},{"OBJECT_NAME":"ONEWEB-0042","OBJECT_ID":"2020-020T","EPOCH":"2026-07-18T00:33:09.359136","CLASSIFICATION_TYPE":"U","MEAN_MOTION":13.11416001,"ECCENTRICITY":0.00017611,"INCLINATION":87.8892,"RA_OF_ASC_NODE":14.9204,"ARG_OF_PERICENTER":90.861,"MEAN_ANOMALY":269.2719,"EPHEMERIS_TYPE":0,"NORAD_CAT_ID":45441,"ELEMENT_SET_NO":999,"REV_AT_EPOCH":30670,"BSTAR":0.0012508726,"MEAN_MOTION_DOT":0.00000456,"MEAN_MOTION_DDOT":0},{"OBJECT_NAME":"ONEWEB-0098","OBJECT_ID":"2020-020U","EPOCH":"2026-07-18T05:56:50.933472","CLASSIFICATION_TYPE":"U","MEAN_MOTION":13.11415378,"ECCENTRICITY":0.00019146,"INCLINATION":87.889,"RA_OF_ASC_NODE":14.8844,"ARG_OF_PERICENTER":93.2508,"MEAN_ANOMALY":266.8839,"EPHEMERIS_TYPE":0,"NORAD_CAT_ID":45442,"ELEMENT_SET_NO":999,"REV_AT_EPOCH":30671,"BSTAR":0.0015985542,"MEAN_MOTION_DOT":0.00000579,"MEAN_MOTION_DDOT":0},{"OBJECT_NAME":"ONEWEB-0055","OBJECT_ID":"2020-020V","EPOCH":"2026-07-17T23:56:31.575552","CLASSIFICATION_TYPE":"U","MEAN_MOTION":13.11418548,"ECCENTRICITY":0.00019258,"INCLINATION":87.8894,"RA_OF_ASC_NODE":14.9333,"ARG_OF_PERICENTER":91.8733,"MEAN_ANOMALY":268.2615,"EPHEMERIS_TYPE":0,"NORAD_CAT_ID":45443,"ELEMENT_SET_NO":999,"REV_AT_EPOCH":30665,"BSTAR":-0.000031817687,"MEAN_MOTION_DOT":1e-8,"MEAN_MOTION_DDOT":0},{"OBJECT_NAME":"ONEWEB-0093","OBJECT_ID":"2020-020W","EPOCH":"2026-07-17T23:39:19.454976","CLASSIFICATION_TYPE":"U","MEAN_MOTION":13.10894374,"ECCENTRICITY":0.00015014,"INCLINATION":87.8894,"RA_OF_ASC_NODE":14.9328,"ARG_OF_PERICENTER":90.8076,"MEAN_ANOMALY":269.3223,"EPHEMERIS_TYPE":0,"NORAD_CAT_ID":45444,"ELEMENT_SET_NO":999,"REV_AT_EPOCH":30671,"BSTAR":-0.0015095799,"MEAN_MOTION_DOT":-0.00000518,"MEAN_MOTION_DDOT":0},{"OBJECT_NAME":"ONEWEB-0029","OBJECT_ID":"2020-020X","EPOCH":"2026-07-18T00:06:42.243840","CLASSIFICATION_TYPE":"U","MEAN_MOTION":13.11417027,"ECCENTRICITY":0.00015945,"INCLINATION":87.8885,"RA_OF_ASC_NODE":14.9318,"ARG_OF_PERICENTER":93.8897,"MEAN_ANOMALY":266.2413,"EPHEMERIS_TYPE":0,"NORAD_CAT_ID":45445,"ELEMENT_SET_NO":999,"REV_AT_EPOCH":30669,"BSTAR":0.00074165728,"MEAN_MOTION_DOT":0.00000276,"MEAN_MOTION_DDOT":0},{"OBJECT_NAME":"ONEWEB-0068","OBJECT_ID":"2020-020Y","EPOCH":"2026-07-18T04:56:48.458688","CLASSIFICATION_TYPE":"U","MEAN_MOTION":13.11424238,"ECCENTRICITY":0.00015922,"INCLINATION":87.8894,"RA_OF_ASC_NODE":14.8883,"ARG_OF_PERICENTER":93.3049,"MEAN_ANOMALY":266.8261,"EPHEMERIS_TYPE":0,"NORAD_CAT_ID":45446,"ELEMENT_SET_NO":999,"REV_AT_EPOCH":30666,"BSTAR":0.0015909295,"MEAN_MOTION_DOT":0.00000577,"MEAN_MOTION_DDOT":0},{"OBJECT_NAME":"ONEWEB-0046","OBJECT_ID":"2020-020Z","EPOCH":"2026-07-18T04:44:47.800608","CLASSIFICATION_TYPE":"U","MEAN_MOTION":13.11416347,"ECCENTRICITY":0.00016064,"INCLINATION":87.8884,"RA_OF_ASC_NODE":14.8941,"ARG_OF_PERICENTER":85.0459,"MEAN_ANOMALY":275.0852,"EPHEMERIS_TYPE":0,"NORAD_CAT_ID":45447,"ELEMENT_SET_NO":999,"REV_AT_EPOCH":30667,"BSTAR":-0.00098926292,"MEAN_MOTION_DOT":-0.00000338,"MEAN_MOTION_DDOT":0},{"OBJECT_NAME":"ONEWEB-0063","OBJECT_ID":"2020-020AA","EPOCH":"2026-07-17T23:56:55.245696","CLASSIFICATION_TYPE":"U","MEAN_MOTION":13.11418485,"ECCENTRICITY":0.00018859,"INCLINATION":87.8896,"RA_OF_ASC_NODE":14.9355,"ARG_OF_PERICENTER":81.9368,"MEAN_ANOMALY":278.1974,"EPHEMERIS_TYPE":0,"NORAD_CAT_ID":45448,"ELEMENT_SET_NO":999,"REV_AT_EPOCH":30673,"BSTAR":-0.00018223793,"MEAN_MOTION_DOT":-5.2e-7,"MEAN_MOTION_DDOT":0},{"OBJECT_NAME":"ONEWEB-0019","OBJECT_ID":"2020-020AB","EPOCH":"2026-07-17T23:02:48.698304","CLASSIFICATION_TYPE":"U","MEAN_MOTION":13.11414675,"ECCENTRICITY":0.00019907,"INCLINATION":87.8888,"RA_OF_ASC_NODE":14.9273,"ARG_OF_PERICENTER":96.2396,"MEAN_ANOMALY":263.8959,"EPHEMERIS_TYPE":0,"NORAD_CAT_ID":45449,"ELEMENT_SET_NO":999,"REV_AT_EPOCH":30657,"BSTAR":-0.00024276537,"MEAN_MOTION_DOT":-7.3e-7,"MEAN_MOTION_DDOT":0},{"OBJECT_NAME":"ONEWEB-0094","OBJECT_ID":"2020-020AC","EPOCH":"2026-07-18T04:26:16.129824","CLASSIFICATION_TYPE":"U","MEAN_MOTION":13.17649172,"ECCENTRICITY":0.00018361,"INCLINATION":87.9156,"RA_OF_ASC_NODE":359.6854,"ARG_OF_PERICENTER":100.7571,"MEAN_ANOMALY":259.3767,"EPHEMERIS_TYPE":0,"NORAD_CAT_ID":45450,"ELEMENT_SET_NO":999,"REV_AT_EPOCH":31039,"BSTAR":0.00006072429,"MEAN_MOTION_DOT":3.6e-7,"MEAN_MOTION_DDOT":0},{"OBJECT_NAME":"ONEWEB-0087","OBJECT_ID":"2020-020AD","EPOCH":"2026-07-18T05:40:46.705152","CLASSIFICATION_TYPE":"U","MEAN_MOTION":13.11417848,"ECCENTRICITY":0.00016036,"INCLINATION":87.8903,"RA_OF_ASC_NODE":14.8646,"ARG_OF_PERICENTER":96.8127,"MEAN_ANOMALY":263.3184,"EPHEMERIS_TYPE":0,"NORAD_CAT_ID":45451,"ELEMENT_SET_NO":999,"REV_AT_EPOCH":30665,"BSTAR":0.0007895313,"MEAN_MOTION_DOT":0.00000293,"MEAN_MOTION_DDOT":0},{"OBJECT_NAME":"ONEWEB-0082","OBJECT_ID":"2020-020AE","EPOCH":"2026-07-18T00:06:17.439264","CLASSIFICATION_TYPE":"U","MEAN_MOTION":13.11418887,"ECCENTRICITY":0.00013606,"INCLINATION":87.8894,"RA_OF_ASC_NODE":14.9249,"ARG_OF_PERICENTER":90.5887,"MEAN_ANOMALY":269.5397,"EPHEMERIS_TYPE":0,"NORAD_CAT_ID":45452,"ELEMENT_SET_NO":999,"REV_AT_EPOCH":30671,"BSTAR":0.00084365518,"MEAN_MOTION_DOT":0.00000312,"MEAN_MOTION_DDOT":0},{"OBJECT_NAME":"ONEWEB-0050","OBJECT_ID":"2020-020AF","EPOCH":"2026-07-18T02:15:22.329216","CLASSIFICATION_TYPE":"U","MEAN_MOTION":14.90477146,"ECCENTRICITY":0.00026698,"INCLINATION":88.9278,"RA_OF_ASC_NODE":229.0119,"ARG_OF_PERICENTER":166.7499,"MEAN_ANOMALY":193.3801,"EPHEMERIS_TYPE":0,"NORAD_CAT_ID":45453,"ELEMENT_SET_NO":999,"REV_AT_EPOCH":34498,"BSTAR":0.000086522954,"MEAN_MOTION_DOT":0.00000866,"MEAN_MOTION_DDOT":0},{"OBJECT_NAME":"ONEWEB-0034","OBJECT_ID":"2020-020AG","EPOCH":"2026-07-18T04:40:09.621984","CLASSIFICATION_TYPE":"U","MEAN_MOTION":13.11414703,"ECCENTRICITY":0.00017977,"INCLINATION":87.8893,"RA_OF_ASC_NODE":14.8961,"ARG_OF_PERICENTER":89.6241,"MEAN_ANOMALY":270.5093,"EPHEMERIS_TYPE":0,"NORAD_CAT_ID":45454,"ELEMENT_SET_NO":999,"REV_AT_EPOCH":30665,"BSTAR":-0.00043945828,"MEAN_MOTION_DOT":-0.00000143,"MEAN_MOTION_DDOT":0}]}
